[
  {
    "name": "VALJOUFFREY",
    "postalCode": "38740",
    "inseeCode": "38522"
  },
  {
    "name": "EYZIN-PINET",
    "postalCode": "38780",
    "inseeCode": "38160"
  },
  {
    "name": "CHATENAY",
    "postalCode": "38980",
    "inseeCode": "38093"
  },
  {
    "name": "HIERES-SUR-AMBY",
    "postalCode": "38118",
    "inseeCode": "38190"
  },
  {
    "name": "PANISSAGE",
    "postalCode": "38730",
    "inseeCode": "38293"
  },
  {
    "name": "PINSOT",
    "postalCode": "38580",
    "inseeCode": "38306"
  },
  {
    "name": "LES COTES-DE-CORPS",
    "postalCode": "38970",
    "inseeCode": "38132"
  },
  {
    "name": "LAVALDENS",
    "postalCode": "38350",
    "inseeCode": "38207"
  },
  {
    "name": "SAINT-CLAIR-SUR-GALAURE",
    "postalCode": "38940",
    "inseeCode": "38379"
  },
  {
    "name": "LE BOUCHAGE",
    "postalCode": "38510",
    "inseeCode": "38050"
  },
  {
    "name": "PRESSINS",
    "postalCode": "38480",
    "inseeCode": "38323"
  },
  {
    "name": "OPTEVOZ",
    "postalCode": "38460",
    "inseeCode": "38282"
  },
  {
    "name": "SEYSSUEL",
    "postalCode": "38200",
    "inseeCode": "38487"
  },
  {
    "name": "GRENOBLE",
    "postalCode": "38000/38100",
    "inseeCode": "38185"
  },
  {
    "name": "ROMAGNIEU",
    "postalCode": "38480",
    "inseeCode": "38343"
  },
  {
    "name": "VILLE-SOUS-ANJOU",
    "postalCode": "38150",
    "inseeCode": "38556"
  },
  {
    "name": "AMBEL",
    "postalCode": "38970",
    "inseeCode": "38008"
  },
  {
    "name": "VARACIEUX",
    "postalCode": "38470",
    "inseeCode": "38523"
  },
  {
    "name": "COGNIN-LES-GORGES",
    "postalCode": "38470",
    "inseeCode": "38117"
  },
  {
    "name": "LA FORTERESSE",
    "postalCode": "38590",
    "inseeCode": "38171"
  },
  {
    "name": "LA BUISSE",
    "postalCode": "38500",
    "inseeCode": "38061"
  },
  {
    "name": "MORESTEL",
    "postalCode": "38510",
    "inseeCode": "38261"
  },
  {
    "name": "SALAISE-SUR-SANNE",
    "postalCode": "38150",
    "inseeCode": "38468"
  },
  {
    "name": "TREPT",
    "postalCode": "38460",
    "inseeCode": "38515"
  },
  {
    "name": "MEAUDRE",
    "postalCode": "38112",
    "inseeCode": "38225"
  },
  {
    "name": "SAINT-MARTIN-DE-CLELLES",
    "postalCode": "38930",
    "inseeCode": "38419"
  },
  {
    "name": "MONTFERRAT",
    "postalCode": "38620",
    "inseeCode": "38256"
  },
  {
    "name": "SAINT-JULIEN-DE-L'HERMS",
    "postalCode": "38122",
    "inseeCode": "38406"
  },
  {
    "name": "IZEAUX",
    "postalCode": "38140",
    "inseeCode": "38194"
  },
  {
    "name": "AGNIN",
    "postalCode": "38150",
    "inseeCode": "38003"
  },
  {
    "name": "MURINAIS",
    "postalCode": "38160",
    "inseeCode": "38272"
  },
  {
    "name": "SAINT-VINCENT-DE-MERCUZE",
    "postalCode": "38660",
    "inseeCode": "38466"
  },
  {
    "name": "SAINT-EGREVE",
    "postalCode": "38120",
    "inseeCode": "38382"
  },
  {
    "name": "BEAUVOIR-EN-ROYANS",
    "postalCode": "38160",
    "inseeCode": "38036"
  },
  {
    "name": "PARMILIEU",
    "postalCode": "38390",
    "inseeCode": "38295"
  },
  {
    "name": "CHAMPAGNIER",
    "postalCode": "38800",
    "inseeCode": "38068"
  },
  {
    "name": "NANTES-EN-RATIER",
    "postalCode": "38350",
    "inseeCode": "38273"
  },
  {
    "name": "VILLARD-BONNOT",
    "postalCode": "38190",
    "inseeCode": "38547"
  },
  {
    "name": "PONT-EVEQUE",
    "postalCode": "38780",
    "inseeCode": "38318"
  },
  {
    "name": "SONNAY",
    "postalCode": "38150",
    "inseeCode": "38496"
  },
  {
    "name": "MONTAGNE",
    "postalCode": "38160",
    "inseeCode": "38245"
  },
  {
    "name": "RUY",
    "postalCode": "38300",
    "inseeCode": "38348"
  },
  {
    "name": "NOTRE-DAME-DE-COMMIERS",
    "postalCode": "38450",
    "inseeCode": "38277"
  },
  {
    "name": "ROVON",
    "postalCode": "38470",
    "inseeCode": "38345"
  },
  {
    "name": "PROVEYSIEUX",
    "postalCode": "38120",
    "inseeCode": "38325"
  },
  {
    "name": "GILLONNAY",
    "postalCode": "38260",
    "inseeCode": "38180"
  },
  {
    "name": "LA BALME-LES-GROTTES",
    "postalCode": "38390",
    "inseeCode": "38026"
  },
  {
    "name": "LUZINAY",
    "postalCode": "38200",
    "inseeCode": "38215"
  },
  {
    "name": "MOISSIEU-SUR-DOLON",
    "postalCode": "38270",
    "inseeCode": "38240"
  },
  {
    "name": "PANOSSAS",
    "postalCode": "38460",
    "inseeCode": "38294"
  },
  {
    "name": "CHAMP-SUR-DRAC",
    "postalCode": "38560",
    "inseeCode": "38071"
  },
  {
    "name": "CORNILLON-EN-TRIEVES",
    "postalCode": "38710",
    "inseeCode": "38127"
  },
  {
    "name": "SIEVOZ",
    "postalCode": "38350",
    "inseeCode": "38489"
  },
  {
    "name": "MORETEL-DE-MAILLES",
    "postalCode": "38570",
    "inseeCode": "38262"
  },
  {
    "name": "MEYLAN",
    "postalCode": "38240",
    "inseeCode": "38229"
  },
  {
    "name": "LE BOURG-D'OISANS",
    "postalCode": "38520",
    "inseeCode": "38052"
  },
  {
    "name": "SAINT-MARTIN-D'HERES",
    "postalCode": "38400",
    "inseeCode": "38421"
  },
  {
    "name": "SAINT-BLAISE-DU-BUIS",
    "postalCode": "38140",
    "inseeCode": "38368"
  },
  {
    "name": "BRESSIEUX",
    "postalCode": "38870",
    "inseeCode": "38056"
  },
  {
    "name": "ECHIROLLES",
    "postalCode": "38130",
    "inseeCode": "38151"
  },
  {
    "name": "SAINT-BAUDILLE-ET-PIPET",
    "postalCode": "38710",
    "inseeCode": "38366"
  },
  {
    "name": "MONTCARRA",
    "postalCode": "38890",
    "inseeCode": "38250"
  },
  {
    "name": "VINAY",
    "postalCode": "38470",
    "inseeCode": "38559"
  },
  {
    "name": "BEAUREPAIRE",
    "postalCode": "38270",
    "inseeCode": "38034"
  },
  {
    "name": "QUINCIEU",
    "postalCode": "38470",
    "inseeCode": "38330"
  },
  {
    "name": "LES EPARRES",
    "postalCode": "38300",
    "inseeCode": "38156"
  },
  {
    "name": "LA COMBE-DE-LANCEY",
    "postalCode": "38190",
    "inseeCode": "38120"
  },
  {
    "name": "SAINT-ROMAIN-DE-SURIEU",
    "postalCode": "38150",
    "inseeCode": "38452"
  },
  {
    "name": "LONGECHENAL",
    "postalCode": "38690",
    "inseeCode": "38213"
  },
  {
    "name": "LA GARDE",
    "postalCode": "38520",
    "inseeCode": "38177"
  },
  {
    "name": "BOURGOIN-JALLIEU",
    "postalCode": "38300",
    "inseeCode": "38053"
  },
  {
    "name": "MAUBEC",
    "postalCode": "38300",
    "inseeCode": "38223"
  },
  {
    "name": "BRESSON",
    "postalCode": "38320",
    "inseeCode": "38057"
  },
  {
    "name": "PRIMARETTE",
    "postalCode": "38270",
    "inseeCode": "38324"
  },
  {
    "name": "MONTBONNOT-SAINT-MARTIN",
    "postalCode": "38330",
    "inseeCode": "38249"
  },
  {
    "name": "ORIS-EN-RATTIER",
    "postalCode": "38350",
    "inseeCode": "38283"
  },
  {
    "name": "LES AVENIERES",
    "postalCode": "38630",
    "inseeCode": "38022"
  },
  {
    "name": "COUR-ET-BUIS",
    "postalCode": "38122",
    "inseeCode": "38134"
  },
  {
    "name": "MORAS",
    "postalCode": "38460",
    "inseeCode": "38260"
  },
  {
    "name": "VILLEMOIRIEU",
    "postalCode": "38460",
    "inseeCode": "38554"
  },
  {
    "name": "ROCHE",
    "postalCode": "38090",
    "inseeCode": "38339"
  },
  {
    "name": "PRUNIERES",
    "postalCode": "38350",
    "inseeCode": "38326"
  },
  {
    "name": "LA VALETTE",
    "postalCode": "38350",
    "inseeCode": "38521"
  },
  {
    "name": "MALLEVAL-EN-VERCORS",
    "postalCode": "38470",
    "inseeCode": "38216"
  },
  {
    "name": "ENTRE-DEUX-GUIERS",
    "postalCode": "38380",
    "inseeCode": "38155"
  },
  {
    "name": "BEVENAIS",
    "postalCode": "38690",
    "inseeCode": "38042"
  },
  {
    "name": "BELLEGARDE-POUSSIEU",
    "postalCode": "38270",
    "inseeCode": "38037"
  },
  {
    "name": "ALLEVARD",
    "postalCode": "38580",
    "inseeCode": "38006"
  },
  {
    "name": "REAUMONT",
    "postalCode": "38140",
    "inseeCode": "38331"
  },
  {
    "name": "SAINT-HILAIRE-DE-BRENS",
    "postalCode": "38460",
    "inseeCode": "38392"
  },
  {
    "name": "RENCUREL",
    "postalCode": "38680",
    "inseeCode": "38333"
  },
  {
    "name": "PAJAY",
    "postalCode": "38260",
    "inseeCode": "38291"
  },
  {
    "name": "MOIRANS",
    "postalCode": "38430",
    "inseeCode": "38239"
  },
  {
    "name": "CHATEAUVILAIN",
    "postalCode": "38300",
    "inseeCode": "38091"
  },
  {
    "name": "SAINT-ONDRAS",
    "postalCode": "38490",
    "inseeCode": "38434"
  },
  {
    "name": "BOUVESSE-QUIRIEU",
    "postalCode": "38390",
    "inseeCode": "38054"
  },
  {
    "name": "SAINT-GUILLAUME",
    "postalCode": "38650",
    "inseeCode": "38391"
  },
  {
    "name": "SAINT-PAUL-DE-VARCES",
    "postalCode": "38760",
    "inseeCode": "38436"
  },
  {
    "name": "CHANTESSE",
    "postalCode": "38470",
    "inseeCode": "38074"
  },
  {
    "name": "MORETTE",
    "postalCode": "38210",
    "inseeCode": "38263"
  },
  {
    "name": "LA VERPILLIERE",
    "postalCode": "38290",
    "inseeCode": "38537"
  },
  {
    "name": "SAINT-NAZAIRE-LES-EYMES",
    "postalCode": "38330",
    "inseeCode": "38431"
  },
  {
    "name": "LE PIN",
    "postalCode": "38730",
    "inseeCode": "38305"
  },
  {
    "name": "SAINT-GEORGES-DE-COMMIERS",
    "postalCode": "38450",
    "inseeCode": "38388"
  },
  {
    "name": "VIZILLE",
    "postalCode": "38220",
    "inseeCode": "38562"
  },
  {
    "name": "TRAMOLE",
    "postalCode": "38300",
    "inseeCode": "38512"
  },
  {
    "name": "MARCOLLIN",
    "postalCode": "38270",
    "inseeCode": "38219"
  },
  {
    "name": "NOYAREY",
    "postalCode": "38360",
    "inseeCode": "38281"
  },
  {
    "name": "SATOLAS-ET-BONCE",
    "postalCode": "38290",
    "inseeCode": "38475"
  },
  {
    "name": "VALENCOGNE",
    "postalCode": "38730",
    "inseeCode": "38520"
  },
  {
    "name": "OYEU",
    "postalCode": "38690",
    "inseeCode": "38287"
  },
  {
    "name": "LA FLACHERE",
    "postalCode": "38530",
    "inseeCode": "38166"
  },
  {
    "name": "POLIENAS",
    "postalCode": "38210",
    "inseeCode": "38310"
  },
  {
    "name": "BEAUFIN",
    "postalCode": "38970",
    "inseeCode": "38031"
  },
  {
    "name": "SAINT-JEAN-D'AVELANNE",
    "postalCode": "38480",
    "inseeCode": "38398"
  },
  {
    "name": "SAINT-HILAIRE",
    "postalCode": "38660",
    "inseeCode": "38395"
  },
  {
    "name": "SAINT-GEOIRE-EN-VALDAINE",
    "postalCode": "38620",
    "inseeCode": "38386"
  },
  {
    "name": "LA MURE",
    "postalCode": "38350",
    "inseeCode": "38269"
  },
  {
    "name": "SEYSSINET-PARISET",
    "postalCode": "38170",
    "inseeCode": "38485"
  },
  {
    "name": "SAINT-PIERRE-DE-BRESSIEUX",
    "postalCode": "38870",
    "inseeCode": "38440"
  },
  {
    "name": "THODURE",
    "postalCode": "38260",
    "inseeCode": "38505"
  },
  {
    "name": "CHATONNAY",
    "postalCode": "38440",
    "inseeCode": "38094"
  },
  {
    "name": "LENTIOL",
    "postalCode": "38270",
    "inseeCode": "38209"
  },
  {
    "name": "SAINT-MARTIN-LE-VINOUX",
    "postalCode": "38950",
    "inseeCode": "38423"
  },
  {
    "name": "VENON",
    "postalCode": "38610",
    "inseeCode": "38533"
  },
  {
    "name": "SAINT-PANCRASSE",
    "postalCode": "38660",
    "inseeCode": "38435"
  },
  {
    "name": "LIVET-ET-GAVET",
    "postalCode": "38220",
    "inseeCode": "38212"
  },
  {
    "name": "DIEMOZ",
    "postalCode": "38790",
    "inseeCode": "38144"
  },
  {
    "name": "BLANDIN",
    "postalCode": "38730",
    "inseeCode": "38047"
  },
  {
    "name": "SAINT-VICTOR-DE-CESSIEU",
    "postalCode": "38110",
    "inseeCode": "38464"
  },
  {
    "name": "CORDEAC",
    "postalCode": "38710",
    "inseeCode": "38125"
  },
  {
    "name": "SABLONS",
    "postalCode": "38550",
    "inseeCode": "38349"
  },
  {
    "name": "SAINT-PIERRE-DE-CHERENNES",
    "postalCode": "38160",
    "inseeCode": "38443"
  },
  {
    "name": "LES ROCHES-DE-CONDRIEU",
    "postalCode": "38370",
    "inseeCode": "38340"
  },
  {
    "name": "SAINT-JULIEN-DE-RAZ",
    "postalCode": "38134",
    "inseeCode": "38407"
  },
  {
    "name": "BREZINS",
    "postalCode": "38590",
    "inseeCode": "38058"
  },
  {
    "name": "LA RIVIERE",
    "postalCode": "38210",
    "inseeCode": "38338"
  },
  {
    "name": "CHELIEU",
    "postalCode": "38730",
    "inseeCode": "38098"
  },
  {
    "name": "SAINTE-AGNES",
    "postalCode": "38190",
    "inseeCode": "38350"
  },
  {
    "name": "CHUZELLES",
    "postalCode": "38200",
    "inseeCode": "38110"
  },
  {
    "name": "CHASSELAY",
    "postalCode": "38470",
    "inseeCode": "38086"
  },
  {
    "name": "LA BATIE-MONTGASCON",
    "postalCode": "38110",
    "inseeCode": "38029"
  },
  {
    "name": "APPRIEU",
    "postalCode": "38140",
    "inseeCode": "38013"
  },
  {
    "name": "BRION",
    "postalCode": "38590",
    "inseeCode": "38060"
  },
  {
    "name": "SUCCIEU",
    "postalCode": "38300",
    "inseeCode": "38498"
  },
  {
    "name": "SAINT-MICHEL-EN-BEAUMONT",
    "postalCode": "38350",
    "inseeCode": "38428"
  },
  {
    "name": "LA SONE",
    "postalCode": "38840",
    "inseeCode": "38495"
  },
  {
    "name": "SAINT-BARTHELEMY",
    "postalCode": "38270",
    "inseeCode": "38363"
  },
  {
    "name": "BEAUFORT",
    "postalCode": "38270",
    "inseeCode": "38032"
  },
  {
    "name": "NOTRE-DAME-DE-MESAGE",
    "postalCode": "38220",
    "inseeCode": "38279"
  },
  {
    "name": "SAINT-ALBAN-DU-RHONE",
    "postalCode": "38370",
    "inseeCode": "38353"
  },
  {
    "name": "SAINT-DIDIER-DE-LA-TOUR",
    "postalCode": "38110",
    "inseeCode": "38381"
  },
  {
    "name": "FONTANIL-CORNILLON",
    "postalCode": "38120",
    "inseeCode": "38170"
  },
  {
    "name": "SAINT-JEAN-DE-MOIRANS",
    "postalCode": "38430",
    "inseeCode": "38400"
  },
  {
    "name": "CHANTELOUVE",
    "postalCode": "38740",
    "inseeCode": "38073"
  },
  {
    "name": "NOTRE-DAME-DE-L'OSIER",
    "postalCode": "38470",
    "inseeCode": "38278"
  },
  {
    "name": "LA BATIE-DIVISIN",
    "postalCode": "38490",
    "inseeCode": "38028"
  },
  {
    "name": "SAINT-VERAND",
    "postalCode": "38160",
    "inseeCode": "38463"
  },
  {
    "name": "VILLARD-SAINT-CHRISTOPHE",
    "postalCode": "38119",
    "inseeCode": "38552"
  },
  {
    "name": "SAINT-AREY",
    "postalCode": "38350",
    "inseeCode": "38361"
  },
  {
    "name": "PELLAFOL",
    "postalCode": "38970",
    "inseeCode": "38299"
  },
  {
    "name": "CHAPAREILLAN",
    "postalCode": "38530",
    "inseeCode": "38075"
  },
  {
    "name": "SERPAIZE",
    "postalCode": "38200",
    "inseeCode": "38484"
  },
  {
    "name": "CHONAS-L'AMBALLAN",
    "postalCode": "38121",
    "inseeCode": "38107"
  },
  {
    "name": "MIRIBEL-LANCHATRE",
    "postalCode": "38450",
    "inseeCode": "38235"
  },
  {
    "name": "FARAMANS",
    "postalCode": "38260",
    "inseeCode": "38161"
  },
  {
    "name": "LE VERSOUD",
    "postalCode": "38420",
    "inseeCode": "38538"
  },
  {
    "name": "LA CHAPELLE-DE-LA-TOUR",
    "postalCode": "38110",
    "inseeCode": "38076"
  },
  {
    "name": "SAINTE-LUCE",
    "postalCode": "38970",
    "inseeCode": "38414"
  },
  {
    "name": "NIVOLAS-VERMELLE",
    "postalCode": "38300",
    "inseeCode": "38276"
  },
  {
    "name": "MEYRIE",
    "postalCode": "38300",
    "inseeCode": "38230"
  },
  {
    "name": "CHANAS",
    "postalCode": "38150",
    "inseeCode": "38072"
  },
  {
    "name": "LA MOTTE-D'AVEILLANS",
    "postalCode": "38770",
    "inseeCode": "38265"
  },
  {
    "name": "VALENCIN",
    "postalCode": "38540",
    "inseeCode": "38519"
  },
  {
    "name": "MONTFALCON",
    "postalCode": "38940",
    "inseeCode": "38255"
  },
  {
    "name": "LE CHEYLAS",
    "postalCode": "38570",
    "inseeCode": "38100"
  },
  {
    "name": "SAINT-PIERRE-DE-MEAROZ",
    "postalCode": "38350",
    "inseeCode": "38444"
  },
  {
    "name": "COGNET",
    "postalCode": "38350",
    "inseeCode": "38116"
  },
  {
    "name": "QUET-EN-BEAUMONT",
    "postalCode": "38970",
    "inseeCode": "38329"
  },
  {
    "name": "SAINT-ANTOINE-L'ABBAYE",
    "postalCode": "38160",
    "inseeCode": "38359"
  },
  {
    "name": "LE FRENEY-D'OISANS",
    "postalCode": "38142",
    "inseeCode": "38173"
  },
  {
    "name": "BALBINS",
    "postalCode": "38260",
    "inseeCode": "38025"
  },
  {
    "name": "LA SALLE-EN-BEAUMONT",
    "postalCode": "38350",
    "inseeCode": "38470"
  },
  {
    "name": "HURTIERES",
    "postalCode": "38570",
    "inseeCode": "38192"
  },
  {
    "name": "VIGNIEU",
    "postalCode": "38890",
    "inseeCode": "38546"
  },
  {
    "name": "ENTRAIGUES",
    "postalCode": "38740",
    "inseeCode": "38154"
  },
  {
    "name": "BIOL",
    "postalCode": "38690",
    "inseeCode": "38044"
  },
  {
    "name": "VAULNAVEYS-LE-BAS",
    "postalCode": "38410",
    "inseeCode": "38528"
  },
  {
    "name": "SARDIEU",
    "postalCode": "38260",
    "inseeCode": "38473"
  },
  {
    "name": "TORCHEFELON",
    "postalCode": "38690",
    "inseeCode": "38508"
  },
  {
    "name": "SAINT-PIERRE-D'ALLEVARD",
    "postalCode": "38830",
    "inseeCode": "38439"
  },
  {
    "name": "COLOMBE",
    "postalCode": "38690",
    "inseeCode": "38118"
  },
  {
    "name": "REVEL-TOURDAN",
    "postalCode": "38270",
    "inseeCode": "38335"
  },
  {
    "name": "LA TERRASSE",
    "postalCode": "38660",
    "inseeCode": "38503"
  },
  {
    "name": "PALADRU",
    "postalCode": "38850",
    "inseeCode": "38292"
  },
  {
    "name": "CHATELUS",
    "postalCode": "38680",
    "inseeCode": "38092"
  },
  {
    "name": "DIZIMIEU",
    "postalCode": "38460",
    "inseeCode": "38146"
  },
  {
    "name": "GRANIEU",
    "postalCode": "38490",
    "inseeCode": "38183"
  },
  {
    "name": "CHARETTE",
    "postalCode": "38390",
    "inseeCode": "38083"
  },
  {
    "name": "SAINT-ISMIER",
    "postalCode": "38330",
    "inseeCode": "38397"
  },
  {
    "name": "SAINT-GERVAIS",
    "postalCode": "38470",
    "inseeCode": "38390"
  },
  {
    "name": "SAINT-JEAN-DE-VAULX",
    "postalCode": "38220",
    "inseeCode": "38402"
  },
  {
    "name": "ANJOU",
    "postalCode": "38150",
    "inseeCode": "38009"
  },
  {
    "name": "BESSINS",
    "postalCode": "38160",
    "inseeCode": "38041"
  },
  {
    "name": "SERMERIEU",
    "postalCode": "38510",
    "inseeCode": "38483"
  },
  {
    "name": "PACT",
    "postalCode": "38270",
    "inseeCode": "38290"
  },
  {
    "name": "VIRIEU",
    "postalCode": "38730",
    "inseeCode": "38560"
  },
  {
    "name": "DIONAY",
    "postalCode": "38160",
    "inseeCode": "38145"
  },
  {
    "name": "BELMONT",
    "postalCode": "38690",
    "inseeCode": "38038"
  },
  {
    "name": "PORCIEU-AMBLAGNIEU",
    "postalCode": "38390",
    "inseeCode": "38320"
  },
  {
    "name": "LA FRETTE",
    "postalCode": "38260",
    "inseeCode": "38174"
  },
  {
    "name": "SAINT-CASSIEN",
    "postalCode": "38500",
    "inseeCode": "38373"
  },
  {
    "name": "LE GRAND-LEMPS",
    "postalCode": "38690",
    "inseeCode": "38182"
  },
  {
    "name": "VILLETTE-DE-VIENNE",
    "postalCode": "38200",
    "inseeCode": "38558"
  },
  {
    "name": "LA COTE-SAINT-ANDRE",
    "postalCode": "38260",
    "inseeCode": "38130"
  },
  {
    "name": "SAINT-PAUL-LES-MONESTIER",
    "postalCode": "38650",
    "inseeCode": "38438"
  },
  {
    "name": "JARRIE",
    "postalCode": "38560",
    "inseeCode": "38200"
  },
  {
    "name": "ASSIEU",
    "postalCode": "38150",
    "inseeCode": "38017"
  },
  {
    "name": "VENOSC",
    "postalCode": "38520",
    "inseeCode": "38534"
  },
  {
    "name": "VENERIEU",
    "postalCode": "38460",
    "inseeCode": "38532"
  },
  {
    "name": "CHASSIGNIEU",
    "postalCode": "38730",
    "inseeCode": "38089"
  },
  {
    "name": "PREBOIS",
    "postalCode": "38710",
    "inseeCode": "38321"
  },
  {
    "name": "QUAIX-EN-CHARTREUSE",
    "postalCode": "38950",
    "inseeCode": "38328"
  },
  {
    "name": "LE PEAGE-DE-ROUSSILLON",
    "postalCode": "38550",
    "inseeCode": "38298"
  },
  {
    "name": "ANTHON",
    "postalCode": "38280",
    "inseeCode": "38011"
  },
  {
    "name": "FROGES",
    "postalCode": "38190",
    "inseeCode": "38175"
  },
  {
    "name": "RIVES",
    "postalCode": "38140",
    "inseeCode": "38337"
  },
  {
    "name": "ROYAS",
    "postalCode": "38440",
    "inseeCode": "38346"
  },
  {
    "name": "AUTRANS",
    "postalCode": "38880",
    "inseeCode": "38021"
  },
  {
    "name": "MARCIEU",
    "postalCode": "38350",
    "inseeCode": "38217"
  },
  {
    "name": "CHORANCHE",
    "postalCode": "38680",
    "inseeCode": "38108"
  },
  {
    "name": "VILLENEUVE-DE-MARC",
    "postalCode": "38440",
    "inseeCode": "38555"
  },
  {
    "name": "SAINT-GEOIRS",
    "postalCode": "38590",
    "inseeCode": "38387"
  },
  {
    "name": "HUEZ",
    "postalCode": "38750",
    "inseeCode": "38191"
  },
  {
    "name": "CHAMAGNIEU",
    "postalCode": "38460",
    "inseeCode": "38067"
  },
  {
    "name": "MONESTIER-DE-CLERMONT",
    "postalCode": "38650",
    "inseeCode": "38242"
  },
  {
    "name": "L'ISLE-D'ABEAU",
    "postalCode": "38080",
    "inseeCode": "38193"
  },
  {
    "name": "GIERES",
    "postalCode": "38610",
    "inseeCode": "38179"
  },
  {
    "name": "CHARAVINES",
    "postalCode": "38850",
    "inseeCode": "38082"
  },
  {
    "name": "BARRAUX",
    "postalCode": "38530",
    "inseeCode": "38027"
  },
  {
    "name": "BRANGUES",
    "postalCode": "38510",
    "inseeCode": "38055"
  },
  {
    "name": "LE MONESTIER-DU-PERCY",
    "postalCode": "38930",
    "inseeCode": "38243"
  },
  {
    "name": "RENAGE",
    "postalCode": "38140",
    "inseeCode": "38332"
  },
  {
    "name": "SAINT-PAUL-D'IZEAUX",
    "postalCode": "38140",
    "inseeCode": "38437"
  },
  {
    "name": "NANTOIN",
    "postalCode": "38260",
    "inseeCode": "38274"
  },
  {
    "name": "SAINT-QUENTIN-SUR-ISERE",
    "postalCode": "38210",
    "inseeCode": "38450"
  },
  {
    "name": "POISAT",
    "postalCode": "38320",
    "inseeCode": "38309"
  },
  {
    "name": "REVEL",
    "postalCode": "38420",
    "inseeCode": "38334"
  },
  {
    "name": "SAINT-SORLIN-DE-VIENNE",
    "postalCode": "38200",
    "inseeCode": "38459"
  },
  {
    "name": "SAINT-GEORGES-D'ESPERANCHE",
    "postalCode": "38790",
    "inseeCode": "38389"
  },
  {
    "name": "SERRE-NERPOL",
    "postalCode": "38470",
    "inseeCode": "38275"
  },
  {
    "name": "ENGINS",
    "postalCode": "38360",
    "inseeCode": "38153"
  },
  {
    "name": "SAINT-ALBAN-DE-ROCHE",
    "postalCode": "38080",
    "inseeCode": "38352"
  },
  {
    "name": "VASSELIN",
    "postalCode": "38890",
    "inseeCode": "38525"
  },
  {
    "name": "FONTAINE",
    "postalCode": "38600",
    "inseeCode": "38169"
  },
  {
    "name": "MONESTIER-D'AMBEL",
    "postalCode": "38970",
    "inseeCode": "38241"
  },
  {
    "name": "SAINTE-ANNE-SUR-GERVONDE",
    "postalCode": "38440",
    "inseeCode": "38358"
  },
  {
    "name": "MONT-SAINT-MARTIN",
    "postalCode": "38120",
    "inseeCode": "38258"
  },
  {
    "name": "AOSTE",
    "postalCode": "38490",
    "inseeCode": "38012"
  },
  {
    "name": "JARCIEU",
    "postalCode": "38270",
    "inseeCode": "38198"
  },
  {
    "name": "SAINT-JOSEPH-DE-RIVIERE",
    "postalCode": "38134",
    "inseeCode": "38405"
  },
  {
    "name": "ROISSARD",
    "postalCode": "38650",
    "inseeCode": "38342"
  },
  {
    "name": "LE PERIER",
    "postalCode": "38740",
    "inseeCode": "38302"
  },
  {
    "name": "SALAGNON",
    "postalCode": "38890",
    "inseeCode": "38467"
  },
  {
    "name": "LA CHAPELLE-DU-BARD",
    "postalCode": "38580",
    "inseeCode": "38078"
  },
  {
    "name": "VEYRINS-THUELLIN",
    "postalCode": "38630",
    "inseeCode": "38541"
  },
  {
    "name": "ARTAS",
    "postalCode": "38440",
    "inseeCode": "38015"
  },
  {
    "name": "SAINT-CHRISTOPHE-EN-OISANS",
    "postalCode": "38520",
    "inseeCode": "38375"
  },
  {
    "name": "SAINT-BERNARD",
    "postalCode": "38660",
    "inseeCode": "38367"
  },
  {
    "name": "BERNIN",
    "postalCode": "38190",
    "inseeCode": "38039"
  },
  {
    "name": "VERNAS",
    "postalCode": "38460",
    "inseeCode": "38535"
  },
  {
    "name": "HEYRIEUX",
    "postalCode": "38540",
    "inseeCode": "38189"
  },
  {
    "name": "JANNEYRIAS",
    "postalCode": "38280",
    "inseeCode": "38197"
  },
  {
    "name": "BURCIN",
    "postalCode": "38690",
    "inseeCode": "38063"
  },
  {
    "name": "PLAN",
    "postalCode": "38590",
    "inseeCode": "38308"
  },
  {
    "name": "VILLEFONTAINE",
    "postalCode": "38090",
    "inseeCode": "38553"
  },
  {
    "name": "VEUREY-VOROIZE",
    "postalCode": "38113",
    "inseeCode": "38540"
  },
  {
    "name": "SAINT-HILAIRE-DU-ROSIER",
    "postalCode": "38840",
    "inseeCode": "38394"
  },
  {
    "name": "PONT-EN-ROYANS",
    "postalCode": "38680",
    "inseeCode": "38319"
  },
  {
    "name": "LE CHAMP-PRES-FROGES",
    "postalCode": "38190",
    "inseeCode": "38070"
  },
  {
    "name": "MAYRES-SAVEL",
    "postalCode": "38350",
    "inseeCode": "38224"
  },
  {
    "name": "LE PONT-DE-CLAIX",
    "postalCode": "38800",
    "inseeCode": "38317"
  },
  {
    "name": "PENOL",
    "postalCode": "38260",
    "inseeCode": "38300"
  },
  {
    "name": "SAINT-MICHEL-LES-PORTES",
    "postalCode": "38650",
    "inseeCode": "38429"
  },
  {
    "name": "LA BUISSIERE",
    "postalCode": "38530",
    "inseeCode": "38062"
  },
  {
    "name": "CHAMROUSSE",
    "postalCode": "38410",
    "inseeCode": "38567"
  },
  {
    "name": "SAINT-MARTIN-DE-VAULSERRE",
    "postalCode": "38480",
    "inseeCode": "38420"
  },
  {
    "name": "PONT-DE-CHERUY",
    "postalCode": "38230",
    "inseeCode": "38316"
  },
  {
    "name": "SAINT-SEBASTIEN",
    "postalCode": "38710",
    "inseeCode": "38456"
  },
  {
    "name": "LE TOUVET",
    "postalCode": "38660",
    "inseeCode": "38511"
  },
  {
    "name": "COUBLEVIE",
    "postalCode": "38500",
    "inseeCode": "38133"
  },
  {
    "name": "LE MOUTARET",
    "postalCode": "38580",
    "inseeCode": "38268"
  },
  {
    "name": "CHATTE",
    "postalCode": "38160",
    "inseeCode": "38095"
  },
  {
    "name": "LE PASSAGE",
    "postalCode": "38490",
    "inseeCode": "38296"
  },
  {
    "name": "ARANDON",
    "postalCode": "38510",
    "inseeCode": "38014"
  },
  {
    "name": "CREMIEU",
    "postalCode": "38460",
    "inseeCode": "38138"
  },
  {
    "name": "SAINT-SULPICE-DES-RIVOIRES",
    "postalCode": "38620",
    "inseeCode": "38460"
  },
  {
    "name": "HERBEYS",
    "postalCode": "38320",
    "inseeCode": "38188"
  },
  {
    "name": "CESSIEU",
    "postalCode": "38110",
    "inseeCode": "38064"
  },
  {
    "name": "MONTEYNARD",
    "postalCode": "38770",
    "inseeCode": "38254"
  },
  {
    "name": "SAINT-PIERRE-DE-CHARTREUSE",
    "postalCode": "38380",
    "inseeCode": "38442"
  },
  {
    "name": "SAINT-BUEIL",
    "postalCode": "38620",
    "inseeCode": "38372"
  },
  {
    "name": "OZ",
    "postalCode": "38114",
    "inseeCode": "38289"
  },
  {
    "name": "CORBELIN",
    "postalCode": "38630",
    "inseeCode": "38124"
  },
  {
    "name": "ALLEMOND",
    "postalCode": "38114",
    "inseeCode": "38005"
  },
  {
    "name": "GONCELIN",
    "postalCode": "38570",
    "inseeCode": "38181"
  },
  {
    "name": "SAINT-HILAIRE-DE-LA-COTE",
    "postalCode": "38260",
    "inseeCode": "38393"
  },
  {
    "name": "BOUGE-CHAMBALUD",
    "postalCode": "38150",
    "inseeCode": "38051"
  },
  {
    "name": "LAFFREY",
    "postalCode": "38220",
    "inseeCode": "38203"
  },
  {
    "name": "POMMIERS-LA-PLACETTE",
    "postalCode": "38340",
    "inseeCode": "38312"
  },
  {
    "name": "LIEUDIEU",
    "postalCode": "38440",
    "inseeCode": "38211"
  },
  {
    "name": "SAINT-THEOFFREY",
    "postalCode": "38119",
    "inseeCode": "38462"
  },
  {
    "name": "CHICHILIANNE",
    "postalCode": "38930",
    "inseeCode": "38103"
  },
  {
    "name": "SAINT-MAURICE-EN-TRIEVES",
    "postalCode": "38930",
    "inseeCode": "38424"
  },
  {
    "name": "CHEVRIERES",
    "postalCode": "38160",
    "inseeCode": "38099"
  },
  {
    "name": "SAINTE-MARIE-DU-MONT",
    "postalCode": "38660",
    "inseeCode": "38418"
  },
  {
    "name": "SAINT-JUST-DE-CLAIX",
    "postalCode": "38680",
    "inseeCode": "38409"
  },
  {
    "name": "LA PIERRE",
    "postalCode": "38570",
    "inseeCode": "38303"
  },
  {
    "name": "ANNOISIN-CHATELANS",
    "postalCode": "38460",
    "inseeCode": "38010"
  },
  {
    "name": "CULIN",
    "postalCode": "38300",
    "inseeCode": "38141"
  },
  {
    "name": "LE SAPPEY-EN-CHARTREUSE",
    "postalCode": "38700",
    "inseeCode": "38471"
  },
  {
    "name": "SAINT-APPOLINARD",
    "postalCode": "38160",
    "inseeCode": "38360"
  },
  {
    "name": "SAINT-LAURENT-EN-BEAUMONT",
    "postalCode": "38350",
    "inseeCode": "38413"
  },
  {
    "name": "SAINT-CHEF",
    "postalCode": "38890",
    "inseeCode": "38374"
  },
  {
    "name": "LES ABRETS",
    "postalCode": "38490",
    "inseeCode": "38001"
  },
  {
    "name": "POMMIER-DE-BEAUREPAIRE",
    "postalCode": "38260",
    "inseeCode": "38311"
  },
  {
    "name": "LA MURETTE",
    "postalCode": "38140",
    "inseeCode": "38270"
  },
  {
    "name": "LA CHAPELLE-DE-SURIEU",
    "postalCode": "38150",
    "inseeCode": "38077"
  },
  {
    "name": "CHEZENEUVE",
    "postalCode": "38300",
    "inseeCode": "38102"
  },
  {
    "name": "VAUJANY",
    "postalCode": "38114",
    "inseeCode": "38527"
  },
  {
    "name": "AUBERIVES-SUR-VAREZE",
    "postalCode": "38550",
    "inseeCode": "38019"
  },
  {
    "name": "VATILIEU",
    "postalCode": "38470",
    "inseeCode": "38526"
  },
  {
    "name": "CLONAS-SUR-VAREZE",
    "postalCode": "38550",
    "inseeCode": "38114"
  },
  {
    "name": "BEAUVOIR-DE-MARC",
    "postalCode": "38440",
    "inseeCode": "38035"
  },
  {
    "name": "SAINT-PIERRE-DE-MESAGE",
    "postalCode": "38220",
    "inseeCode": "38445"
  },
  {
    "name": "EYDOCHE",
    "postalCode": "38690",
    "inseeCode": "38159"
  },
  {
    "name": "ROUSSILLON",
    "postalCode": "38150",
    "inseeCode": "38344"
  },
  {
    "name": "MENS",
    "postalCode": "38710",
    "inseeCode": "38226"
  },
  {
    "name": "VIRIVILLE",
    "postalCode": "38980",
    "inseeCode": "38561"
  },
  {
    "name": "MONTALIEU-VERCIEU",
    "postalCode": "38390",
    "inseeCode": "38247"
  },
  {
    "name": "BILIEU",
    "postalCode": "38850",
    "inseeCode": "38043"
  },
  {
    "name": "MONSTEROUX-MILIEU",
    "postalCode": "38122",
    "inseeCode": "38244"
  },
  {
    "name": "LA MORTE",
    "postalCode": "38350",
    "inseeCode": "38264"
  },
  {
    "name": "SEMONS",
    "postalCode": "38260",
    "inseeCode": "38479"
  },
  {
    "name": "THEYS",
    "postalCode": "38570",
    "inseeCode": "38504"
  },
  {
    "name": "MIZOEN",
    "postalCode": "38142",
    "inseeCode": "38237"
  },
  {
    "name": "CHARANCIEU",
    "postalCode": "38490",
    "inseeCode": "38080"
  },
  {
    "name": "SAINT-SAVIN",
    "postalCode": "38300",
    "inseeCode": "38455"
  },
  {
    "name": "MEYRIEU-LES-ETANGS",
    "postalCode": "38440",
    "inseeCode": "38231"
  },
  {
    "name": "SAINT-BARTHELEMY-DE-SECHILIENNE",
    "postalCode": "38220",
    "inseeCode": "38364"
  },
  {
    "name": "LEYRIEU",
    "postalCode": "38460",
    "inseeCode": "38210"
  },
  {
    "name": "BIZONNES",
    "postalCode": "38690",
    "inseeCode": "38046"
  },
  {
    "name": "CHOLONGE",
    "postalCode": "38220",
    "inseeCode": "38106"
  },
  {
    "name": "PONSONNAS",
    "postalCode": "38350",
    "inseeCode": "38313"
  },
  {
    "name": "ROYBON",
    "postalCode": "38940",
    "inseeCode": "38347"
  },
  {
    "name": "VILLARD-RECULAS",
    "postalCode": "38114",
    "inseeCode": "38550"
  },
  {
    "name": "SARCENAS",
    "postalCode": "38700",
    "inseeCode": "38472"
  },
  {
    "name": "LES ADRETS",
    "postalCode": "38190",
    "inseeCode": "38002"
  },
  {
    "name": "CHALON",
    "postalCode": "38122",
    "inseeCode": "38066"
  },
  {
    "name": "SAINT-MARTIN-D'URIAGE",
    "postalCode": "38410",
    "inseeCode": "38422"
  },
  {
    "name": "SECHILIENNE",
    "postalCode": "38220",
    "inseeCode": "38478"
  },
  {
    "name": "MOTTIER",
    "postalCode": "38260",
    "inseeCode": "38267"
  },
  {
    "name": "MURIANETTE",
    "postalCode": "38420",
    "inseeCode": "38271"
  },
  {
    "name": "GRESSE-EN-VERCORS",
    "postalCode": "38650",
    "inseeCode": "38186"
  },
  {
    "name": "SAINT-ETIENNE-DE-CROSSEY",
    "postalCode": "38960",
    "inseeCode": "38383"
  },
  {
    "name": "REVENTIN-VAUGRIS",
    "postalCode": "38121",
    "inseeCode": "38336"
  },
  {
    "name": "LA TOUR-DU-PIN",
    "postalCode": "38110",
    "inseeCode": "38509"
  },
  {
    "name": "SAVAS-MEPIN",
    "postalCode": "38440",
    "inseeCode": "38476"
  },
  {
    "name": "FITILIEU",
    "postalCode": "38490",
    "inseeCode": "38165"
  },
  {
    "name": "SAINTE-MARIE-D'ALLOIX",
    "postalCode": "38660",
    "inseeCode": "38417"
  },
  {
    "name": "LA SALETTE-FALLAVAUX",
    "postalCode": "38970",
    "inseeCode": "38469"
  },
  {
    "name": "SILLANS",
    "postalCode": "38590",
    "inseeCode": "38490"
  },
  {
    "name": "SAINT-MARTIN-DE-LA-CLUZE",
    "postalCode": "38650",
    "inseeCode": "38115"
  },
  {
    "name": "MONTREVEL",
    "postalCode": "38690",
    "inseeCode": "38257"
  },
  {
    "name": "SICCIEU-SAINT-JULIEN-ET-CARISIEU",
    "postalCode": "38460",
    "inseeCode": "38488"
  },
  {
    "name": "TREMINIS",
    "postalCode": "38710",
    "inseeCode": "38514"
  },
  {
    "name": "SAINT-JEAN-LE-VIEUX",
    "postalCode": "38420",
    "inseeCode": "38404"
  },
  {
    "name": "JARDIN",
    "postalCode": "38200",
    "inseeCode": "38199"
  },
  {
    "name": "MONTCHABOUD",
    "postalCode": "38220",
    "inseeCode": "38252"
  },
  {
    "name": "VILLETTE-D'ANTHON",
    "postalCode": "38280",
    "inseeCode": "38557"
  },
  {
    "name": "BRIE-ET-ANGONNES",
    "postalCode": "38320",
    "inseeCode": "38059"
  },
  {
    "name": "LE PONT-DE-BEAUVOISIN",
    "postalCode": "38480",
    "inseeCode": "38315"
  },
  {
    "name": "CORENC",
    "postalCode": "38700",
    "inseeCode": "38126"
  },
  {
    "name": "LANS-EN-VERCORS",
    "postalCode": "38250",
    "inseeCode": "38205"
  },
  {
    "name": "SAINT-ANDRE-EN-ROYANS",
    "postalCode": "38680",
    "inseeCode": "38356"
  },
  {
    "name": "VELANNE",
    "postalCode": "38620",
    "inseeCode": "38531"
  },
  {
    "name": "MARNANS",
    "postalCode": "38980",
    "inseeCode": "38221"
  },
  {
    "name": "SAINT-NICOLAS-DE-MACHERIN",
    "postalCode": "38500",
    "inseeCode": "38432"
  },
  {
    "name": "BONNEFAMILLE",
    "postalCode": "38090",
    "inseeCode": "38048"
  },
  {
    "name": "VERTRIEU",
    "postalCode": "38390",
    "inseeCode": "38539"
  },
  {
    "name": "BADINIERES",
    "postalCode": "38300",
    "inseeCode": "38024"
  },
  {
    "name": "TREFFORT",
    "postalCode": "38650",
    "inseeCode": "38513"
  },
  {
    "name": "IZERON",
    "postalCode": "38160",
    "inseeCode": "38195"
  },
  {
    "name": "VERNIOZ",
    "postalCode": "38150",
    "inseeCode": "38536"
  },
  {
    "name": "MONT-DE-LANS",
    "postalCode": "38860",
    "inseeCode": "38253"
  },
  {
    "name": "SAINT-CLAIR-DU-RHONE",
    "postalCode": "38370",
    "inseeCode": "38378"
  },
  {
    "name": "CHAVANOZ",
    "postalCode": "38230",
    "inseeCode": "38097"
  },
  {
    "name": "MOIDIEU-DETOURBE",
    "postalCode": "38440",
    "inseeCode": "38238"
  },
  {
    "name": "SINARD",
    "postalCode": "38650",
    "inseeCode": "38492"
  },
  {
    "name": "SOLEYMIEU",
    "postalCode": "38460",
    "inseeCode": "38494"
  },
  {
    "name": "VILLARD-NOTRE-DAME",
    "postalCode": "38520",
    "inseeCode": "38549"
  },
  {
    "name": "CORPS",
    "postalCode": "38970",
    "inseeCode": "38128"
  },
  {
    "name": "SAINT-DIDIER-DE-BIZONNES",
    "postalCode": "38690",
    "inseeCode": "38380"
  },
  {
    "name": "SUSVILLE",
    "postalCode": "38350",
    "inseeCode": "38499"
  },
  {
    "name": "SAINT-MURY-MONTEYMOND",
    "postalCode": "38190",
    "inseeCode": "38430"
  },
  {
    "name": "ECLOSE",
    "postalCode": "38300",
    "inseeCode": "38152"
  },
  {
    "name": "VIF",
    "postalCode": "38450",
    "inseeCode": "38545"
  },
  {
    "name": "VILLARD-DE-LANS",
    "postalCode": "38250",
    "inseeCode": "38548"
  },
  {
    "name": "SAINT-AGNIN-SUR-BION",
    "postalCode": "38300",
    "inseeCode": "38351"
  },
  {
    "name": "TIGNIEU-JAMEYZIEU",
    "postalCode": "38230",
    "inseeCode": "38507"
  },
  {
    "name": "MIRIBEL-LES-ECHELLES",
    "postalCode": "38380",
    "inseeCode": "38236"
  },
  {
    "name": "FRONTONAS",
    "postalCode": "38290",
    "inseeCode": "38176"
  },
  {
    "name": "SOUSVILLE",
    "postalCode": "38350",
    "inseeCode": "38497"
  },
  {
    "name": "EYBENS",
    "postalCode": "38320",
    "inseeCode": "38158"
  },
  {
    "name": "SAINT-PRIM",
    "postalCode": "38370",
    "inseeCode": "38448"
  },
  {
    "name": "ROCHETOIRIN",
    "postalCode": "38110",
    "inseeCode": "38341"
  },
  {
    "name": "LES COTES-D'AREY",
    "postalCode": "38138",
    "inseeCode": "38131"
  },
  {
    "name": "SASSENAGE",
    "postalCode": "38360",
    "inseeCode": "38474"
  },
  {
    "name": "SAINT-MARCEL-BEL-ACCUEIL",
    "postalCode": "38080",
    "inseeCode": "38415"
  },
  {
    "name": "SAINT-LATTIER",
    "postalCode": "38840",
    "inseeCode": "38410"
  },
  {
    "name": "BOSSIEU",
    "postalCode": "38260",
    "inseeCode": "38049"
  },
  {
    "name": "SAINT-JEAN-DE-SOUDAIN",
    "postalCode": "38110",
    "inseeCode": "38401"
  },
  {
    "name": "ORNON",
    "postalCode": "38520",
    "inseeCode": "38285"
  },
  {
    "name": "MERLAS",
    "postalCode": "38620",
    "inseeCode": "38228"
  },
  {
    "name": "CREYS-MEPIEU",
    "postalCode": "38510",
    "inseeCode": "38139"
  },
  {
    "name": "ARZAY",
    "postalCode": "38260",
    "inseeCode": "38016"
  },
  {
    "name": "SAINT-ETIENNE-DE-SAINT-GEOIRS",
    "postalCode": "38590",
    "inseeCode": "38384"
  },
  {
    "name": "MEYSSIES",
    "postalCode": "38440",
    "inseeCode": "38232"
  },
  {
    "name": "PONTCHARRA",
    "postalCode": "38530",
    "inseeCode": "38314"
  },
  {
    "name": "LUMBIN",
    "postalCode": "38660",
    "inseeCode": "38214"
  },
  {
    "name": "CLAIX",
    "postalCode": "38640",
    "inseeCode": "38111"
  },
  {
    "name": "MONTAUD",
    "postalCode": "38210",
    "inseeCode": "38248"
  },
  {
    "name": "LE GUA",
    "postalCode": "38450",
    "inseeCode": "38187"
  },
  {
    "name": "OYTIER-SAINT-OBLAS",
    "postalCode": "38780",
    "inseeCode": "38288"
  },
  {
    "name": "LA FERRIERE",
    "postalCode": "38580",
    "inseeCode": "38163"
  },
  {
    "name": "SAINT-AUPRE",
    "postalCode": "38960",
    "inseeCode": "38362"
  },
  {
    "name": "BEAULIEU",
    "postalCode": "38470",
    "inseeCode": "38033"
  },
  {
    "name": "VOREPPE",
    "postalCode": "38340",
    "inseeCode": "38565"
  },
  {
    "name": "LA TRONCHE",
    "postalCode": "38700",
    "inseeCode": "38516"
  },
  {
    "name": "DOMENE",
    "postalCode": "38420",
    "inseeCode": "38150"
  },
  {
    "name": "SEPTEME",
    "postalCode": "38780",
    "inseeCode": "38480"
  },
  {
    "name": "DOMARIN",
    "postalCode": "38300",
    "inseeCode": "38149"
  },
  {
    "name": "TENCIN",
    "postalCode": "38570",
    "inseeCode": "38501"
  },
  {
    "name": "PIERRE-CHATEL",
    "postalCode": "38119",
    "inseeCode": "38304"
  },
  {
    "name": "BESSE",
    "postalCode": "38142",
    "inseeCode": "38040"
  },
  {
    "name": "CRAS",
    "postalCode": "38210",
    "inseeCode": "38137"
  },
  {
    "name": "SAINT-VICTOR-DE-MORESTEL",
    "postalCode": "38510",
    "inseeCode": "38465"
  },
  {
    "name": "SAINT-SAUVEUR",
    "postalCode": "38160",
    "inseeCode": "38454"
  },
  {
    "name": "BIVIERS",
    "postalCode": "38330",
    "inseeCode": "38045"
  },
  {
    "name": "GRENAY",
    "postalCode": "38540",
    "inseeCode": "38184"
  },
  {
    "name": "CLAVANS-EN-HAUT-OISANS",
    "postalCode": "38142",
    "inseeCode": "38112"
  },
  {
    "name": "VILLARD-REYMOND",
    "postalCode": "38520",
    "inseeCode": "38551"
  },
  {
    "name": "SAINT-ROMANS",
    "postalCode": "38160",
    "inseeCode": "38453"
  },
  {
    "name": "SAINT-JEAN-D'HERANS",
    "postalCode": "38710",
    "inseeCode": "38403"
  },
  {
    "name": "SAINT-ALBIN-DE-VAULSERRE",
    "postalCode": "38480",
    "inseeCode": "38354"
  },
  {
    "name": "SAINT-SORLIN-DE-MORESTEL",
    "postalCode": "38510",
    "inseeCode": "38458"
  },
  {
    "name": "SAINT-CLAIR-DE-LA-TOUR",
    "postalCode": "38110",
    "inseeCode": "38377"
  },
  {
    "name": "CHATEAU-BERNARD",
    "postalCode": "38650",
    "inseeCode": "38090"
  },
  {
    "name": "SAINT-JEAN-DE-BOURNAY",
    "postalCode": "38440",
    "inseeCode": "38399"
  },
  {
    "name": "SEREZIN-DE-LA-TOUR",
    "postalCode": "38300",
    "inseeCode": "38481"
  },
  {
    "name": "VARCES-ALLIERES-ET-RISSET",
    "postalCode": "38760",
    "inseeCode": "38524"
  },
  {
    "name": "ORNACIEUX",
    "postalCode": "38260",
    "inseeCode": "38284"
  },
  {
    "name": "SAINTE-BLANDINE",
    "postalCode": "38110",
    "inseeCode": "38369"
  },
  {
    "name": "MASSIEU",
    "postalCode": "38620",
    "inseeCode": "38222"
  },
  {
    "name": "FAVERGES-DE-LA-TOUR",
    "postalCode": "38110",
    "inseeCode": "38162"
  },
  {
    "name": "BEAUCROISSANT",
    "postalCode": "38140",
    "inseeCode": "38030"
  },
  {
    "name": "L'ALBENC",
    "postalCode": "38470",
    "inseeCode": "38004"
  },
  {
    "name": "SAINT-HONORE",
    "postalCode": "38350",
    "inseeCode": "38396"
  },
  {
    "name": "SAINT-PIERRE-D'ENTREMONT",
    "postalCode": "73670",
    "inseeCode": "38446"
  },
  {
    "name": "SAINT-MAXIMIN",
    "postalCode": "38530",
    "inseeCode": "38426"
  },
  {
    "name": "SAINT-ROMAIN-DE-JALIONAS",
    "postalCode": "38460",
    "inseeCode": "38451"
  },
  {
    "name": "FOUR",
    "postalCode": "38080",
    "inseeCode": "38172"
  },
  {
    "name": "SAINT-QUENTIN-FALLAVIER",
    "postalCode": "38070",
    "inseeCode": "38449"
  },
  {
    "name": "COMMELLE",
    "postalCode": "38260",
    "inseeCode": "38121"
  },
  {
    "name": "CHOZEAU",
    "postalCode": "38460",
    "inseeCode": "38109"
  },
  {
    "name": "OULLES",
    "postalCode": "38520",
    "inseeCode": "38286"
  },
  {
    "name": "VOIRON",
    "postalCode": "38500",
    "inseeCode": "38563"
  },
  {
    "name": "COURTENAY",
    "postalCode": "38510",
    "inseeCode": "38135"
  },
  {
    "name": "SAINT-ANDRE-LE-GAZ",
    "postalCode": "38490",
    "inseeCode": "38357"
  },
  {
    "name": "FLACHERES",
    "postalCode": "38690",
    "inseeCode": "38167"
  },
  {
    "name": "SAINT-CHRISTOPHE-SUR-GUIERS",
    "postalCode": "38380",
    "inseeCode": "38376"
  },
  {
    "name": "ESTRABLIN",
    "postalCode": "38780",
    "inseeCode": "38157"
  },
  {
    "name": "CHABONS",
    "postalCode": "38690",
    "inseeCode": "38065"
  },
  {
    "name": "SAINT-BONNET-DE-CHAVAGNE",
    "postalCode": "38840",
    "inseeCode": "38370"
  },
  {
    "name": "SAINT-LAURENT-DU-PONT",
    "postalCode": "38380",
    "inseeCode": "38412"
  },
  {
    "name": "CHEYSSIEU",
    "postalCode": "38550",
    "inseeCode": "38101"
  },
  {
    "name": "CHARVIEU-CHAVAGNEUX",
    "postalCode": "38230",
    "inseeCode": "38085"
  },
  {
    "name": "SAINT-MAURICE-L'EXIL",
    "postalCode": "38550",
    "inseeCode": "38425"
  },
  {
    "name": "SAINT-MICHEL-DE-SAINT-GEOIRS",
    "postalCode": "38590",
    "inseeCode": "38427"
  },
  {
    "name": "PISIEU",
    "postalCode": "38270",
    "inseeCode": "38307"
  },
  {
    "name": "VEZERONCE-CURTIN",
    "postalCode": "38510",
    "inseeCode": "38543"
  },
  {
    "name": "CHASSE-SUR-RHONE",
    "postalCode": "38670",
    "inseeCode": "38087"
  },
  {
    "name": "SAINT-NIZIER-DU-MOUCHEROTTE",
    "postalCode": "38250",
    "inseeCode": "38433"
  },
  {
    "name": "VEYSSILIEU",
    "postalCode": "38460",
    "inseeCode": "38542"
  },
  {
    "name": "MONTAGNIEU",
    "postalCode": "38110",
    "inseeCode": "38246"
  },
  {
    "name": "SEYSSINS",
    "postalCode": "38180",
    "inseeCode": "38486"
  },
  {
    "name": "SAINT-SIMEON-DE-BRESSIEUX",
    "postalCode": "38870",
    "inseeCode": "38457"
  },
  {
    "name": "CHARANTONNAY",
    "postalCode": "38790",
    "inseeCode": "38081"
  },
  {
    "name": "TULLINS",
    "postalCode": "38210",
    "inseeCode": "38517"
  },
  {
    "name": "CHIRENS",
    "postalCode": "38850",
    "inseeCode": "38105"
  },
  {
    "name": "TECHE",
    "postalCode": "38470",
    "inseeCode": "38500"
  },
  {
    "name": "CRACHIER",
    "postalCode": "38300",
    "inseeCode": "38136"
  },
  {
    "name": "LA MOTTE-SAINT-MARTIN",
    "postalCode": "38770",
    "inseeCode": "38266"
  },
  {
    "name": "VIENNE",
    "postalCode": "38200",
    "inseeCode": "38544"
  },
  {
    "name": "PERCY",
    "postalCode": "38930",
    "inseeCode": "38301"
  },
  {
    "name": "LAVARS",
    "postalCode": "38710",
    "inseeCode": "38208"
  },
  {
    "name": "VAULX-MILIEU",
    "postalCode": "38090",
    "inseeCode": "38530"
  },
  {
    "name": "VAULNAVEYS-LE-HAUT",
    "postalCode": "38410",
    "inseeCode": "38529"
  },
  {
    "name": "PASSINS",
    "postalCode": "38510",
    "inseeCode": "38297"
  },
  {
    "name": "CHARNECLES",
    "postalCode": "38140",
    "inseeCode": "38084"
  },
  {
    "name": "SAINT-JUST-CHALEYSSIN",
    "postalCode": "38540",
    "inseeCode": "38408"
  },
  {
    "name": "DOLOMIEU",
    "postalCode": "38110",
    "inseeCode": "38148"
  },
  {
    "name": "SAINT-BAUDILLE-DE-LA-TOUR",
    "postalCode": "38118",
    "inseeCode": "38365"
  },
  {
    "name": "PRESLES",
    "postalCode": "38680",
    "inseeCode": "38322"
  },
  {
    "name": "AUBERIVES-EN-ROYANS",
    "postalCode": "38680",
    "inseeCode": "38018"
  },
  {
    "name": "CLELLES",
    "postalCode": "38930",
    "inseeCode": "38113"
  },
  {
    "name": "VOUREY",
    "postalCode": "38210",
    "inseeCode": "38566"
  },
  {
    "name": "LAVAL",
    "postalCode": "38190",
    "inseeCode": "38206"
  },
  {
    "name": "AURIS",
    "postalCode": "38142",
    "inseeCode": "38020"
  },
  {
    "name": "VALBONNAIS",
    "postalCode": "38740",
    "inseeCode": "38518"
  },
  {
    "name": "SAINT-ANDEOL",
    "postalCode": "38650",
    "inseeCode": "38355"
  },
  {
    "name": "NOTRE-DAME-DE-VAULX",
    "postalCode": "38144",
    "inseeCode": "38280"
  },
  {
    "name": "CHIMILIN",
    "postalCode": "38490",
    "inseeCode": "38104"
  },
  {
    "name": "CROLLES",
    "postalCode": "38920",
    "inseeCode": "38140"
  },
  {
    "name": "VOISSANT",
    "postalCode": "38620",
    "inseeCode": "38564"
  },
  {
    "name": "CORRENCON-EN-VERCORS",
    "postalCode": "38250",
    "inseeCode": "38129"
  },
  {
    "name": "MONTSEVEROUX",
    "postalCode": "38122",
    "inseeCode": "38259"
  },
  {
    "name": "CHAMPIER",
    "postalCode": "38260",
    "inseeCode": "38069"
  },
  {
    "name": "SAINT-MARCELLIN",
    "postalCode": "38160",
    "inseeCode": "38416"
  },
  {
    "name": "MARCILLOLES",
    "postalCode": "38260",
    "inseeCode": "38218"
  },
  {
    "name": "LALLEY",
    "postalCode": "38930",
    "inseeCode": "38204"
  },
  {
    "name": "DOISSIN",
    "postalCode": "38730",
    "inseeCode": "38147"
  },
  {
    "name": "AVIGNONET",
    "postalCode": "38650",
    "inseeCode": "38023"
  }
]
